ONEWEB-0066             
1 45424U 20020A   24112.67918658 -.00000308  00000+0 -90609-3 0  9992
2 45424  87.9017 177.5026 0001853 109.7076 250.4252 13.11416666199596
ONEWEB-0067             
1 45425U 20020B   24112.70275106  .00000592  00000+0  16342-2 0  9995
2 45425  87.9011 177.4594 0001841  95.2210 264.9128 13.11416307199657
ONEWEB-0090             
1 45427U 20020D   24112.66947540 -.00001825  00000+0 -51866-2 0  9992
2 45427  87.9027 177.4880 0002207 115.2877 244.8480 13.11401063199586
ONEWEB-0061             
1 45428U 20020E   24112.70193641  .00000519  00000+0  14277-2 0  9995
2 45428  87.9017 177.4824 0002064 102.0408 258.0951 13.11416210199545
ONEWEB-0081             
1 45429U 20020F   24112.68243728 -.00000153  00000+0 -46815-3 0  9995
2 45429  87.9018 177.5035 0001833  99.2438 260.8897 13.11416620199652
ONEWEB-0069             
1 45430U 20020G   24112.67269705 -.00000461  00000+0 -13362-2 0  9991
2 45430  87.9017 177.4939 0002134 101.2618 258.8750 13.11416058199586
